IRIDIUM 150             
1 43257U 18030J   24354.74439043 -.00000030  00000+0 -17748-4 0  9990
2 43257  86.3990 158.0572 0001653  99.6779 260.4603 14.34217268352120
IRIDIUM 143             
1 43258U 18030K   24355.00443610 -.00000035  00000+0 -19458-4 0  9991
2 43258  86.3994 158.0198 0001522 105.4261 254.7103 14.34217311352126
IRIDIUM 161             
1 43478U 18047C   24354.36726264  .00000790  00000+0  22883-3 0  9991
2 43478  86.4486 316.1461 0002158  89.5240 270.6208 14.43285581346559
IRIDIUM 152             
1 43479U 18047D   24354.83761800  .00000260  00000+0  85643-4 0  9995
2 43479  86.3959 315.8089 0002234  83.9084 276.2366 14.34217710344469
IRIDIUM 147             
1 43480U 18047E   24354.84396115  .00000218  00000+0  70740-4 0  9996
2 43480  86.3959 315.8016 0002560  82.7226 277.4261 14.34218169344464
IRIDIUM 110             
1 43481U 18047F   24354.85030449 -.00000065  00000+0 -30285-4 0  9995
2 43481  86.3957 315.8772 0002298  75.2910 284.8541 14.34217373344455
IRIDIUM 162             
1 43482U 18047G   24354.84627885  .00000033  00000+0  37615-5 0  9999
2 43482  86.4480 315.8433 0002326  78.1693 281.9768 14.43276794346615
IRIDIUM 160             
1 43569U 18061A   24354.86590905  .00000093  00000+0  26080-4 0  9994
2 43569  86.3965 284.2294 0002428  84.3453 275.8019 14.34217543335355
